{"fetched_at":"2026-07-21T07:06:31.784Z","source":"https://celestrak.org/NORAD/elements/gp.php?GROUP=qianfan&FORMAT=JSON","constellation":"qianfan","records":[{"OBJECT_NAME":"QIANFAN-97","OBJECT_ID":"2025-233G","EPOCH":"2026-07-20T22:13:52.152384","CLASSIFICATION_TYPE":"U","MEAN_MOTION":13.5101598,"ECCENTRICITY":0.00020955,"INCLINATION":88.9986,"RA_OF_ASC_NODE":39.7751,"ARG_OF_PERICENTER":94.392,"MEAN_ANOMALY":265.747,"EPHEMERIS_TYPE":0,"NORAD_CAT_ID":66039,"ELEMENT_SET_NO":999,"REV_AT_EPOCH":3774,"BSTAR":0.000025209436,"MEAN_MOTION_DOT":2.8e-7,"MEAN_MOTION_DDOT":0},{"OBJECT_NAME":"QIANFAN-98","OBJECT_ID":"2025-233H","EPOCH":"2026-07-20T22:25:41.249280","CLASSIFICATION_TYPE":"U","MEAN_MOTION":13.51015671,"ECCENTRICITY":0.00023776,"INCLINATION":88.9975,"RA_OF_ASC_NODE":39.5015,"ARG_OF_PERICENTER":81.2027,"MEAN_ANOMALY":278.9393,"EPHEMERIS_TYPE":0,"NORAD_CAT_ID":66040,"ELEMENT_SET_NO":999,"REV_AT_EPOCH":3788,"BSTAR":0.000006852692,"MEAN_MOTION_DOT":1.6e-7,"MEAN_MOTION_DDOT":0},{"OBJECT_NAME":"QIANFAN-99","OBJECT_ID":"2025-233J","EPOCH":"2026-07-20T22:31:35.581728","CLASSIFICATION_TYPE":"U","MEAN_MOTION":13.51015735,"ECCENTRICITY":0.00023583,"INCLINATION":88.9987,"RA_OF_ASC_NODE":39.7781,"ARG_OF_PERICENTER":86.103,"MEAN_ANOMALY":274.0391,"EPHEMERIS_TYPE":0,"NORAD_CAT_ID":66041,"ELEMENT_SET_NO":999,"REV_AT_EPOCH":3774,"BSTAR":0.000014819402,"MEAN_MOTION_DOT":2.2e-7,"MEAN_MOTION_DDOT":0},{"OBJECT_NAME":"QIANFAN-100","OBJECT_ID":"2025-233K","EPOCH":"2026-07-20T22:19:40.419552","CLASSIFICATION_TYPE":"U","MEAN_MOTION":13.51015813,"ECCENTRICITY":0.00020701,"INCLINATION":88.9997,"RA_OF_ASC_NODE":39.7096,"ARG_OF_PERICENTER":94.4279,"MEAN_ANOMALY":265.7109,"EPHEMERIS_TYPE":0,"NORAD_CAT_ID":66042,"ELEMENT_SET_NO":999,"REV_AT_EPOCH":3779,"BSTAR":0.000008176082,"MEAN_MOTION_DOT":1.7e-7,"MEAN_MOTION_DDOT":0},{"OBJECT_NAME":"QIANFAN-101","OBJECT_ID":"2025-233L","EPOCH":"2026-07-20T06:08:12.664032","CLASSIFICATION_TYPE":"U","MEAN_MOTION":14.26824149,"ECCENTRICITY":0.00167181,"INCLINATION":88.9984,"RA_OF_ASC_NODE":36.7689,"ARG_OF_PERICENTER":42.7466,"MEAN_ANOMALY":317.5025,"EPHEMERIS_TYPE":0,"NORAD_CAT_ID":66043,"ELEMENT_SET_NO":999,"REV_AT_EPOCH":3934,"BSTAR":0.000063819728,"MEAN_MOTION_DOT":0.0000017,"MEAN_MOTION_DDOT":0},{"OBJECT_NAME":"QIANFAN-102","OBJECT_ID":"2025-233M","EPOCH":"2026-07-20T19:16:06.474144","CLASSIFICATION_TYPE":"U","MEAN_MOTION":13.51015639,"ECCENTRICITY":0.00021611,"INCLINATION":88.9984,"RA_OF_ASC_NODE":39.7006,"ARG_OF_PERICENTER":89.4195,"MEAN_ANOMALY":270.7204,"EPHEMERIS_TYPE":0,"NORAD_CAT_ID":66044,"ELEMENT_SET_NO":999,"REV_AT_EPOCH":3777,"BSTAR":0.000025804118,"MEAN_MOTION_DOT":2.9e-7,"MEAN_MOTION_DDOT":0},{"OBJECT_NAME":"QIANFAN-103","OBJECT_ID":"2025-233N","EPOCH":"2026-07-20T06:55:28.202304","CLASSIFICATION_TYPE":"U","MEAN_MOTION":13.51016554,"ECCENTRICITY":0.00020691,"INCLINATION":88.9987,"RA_OF_ASC_NODE":39.8488,"ARG_OF_PERICENTER":94.6098,"MEAN_ANOMALY":265.5289,"EPHEMERIS_TYPE":0,"NORAD_CAT_ID":66045,"ELEMENT_SET_NO":999,"REV_AT_EPOCH":3765,"BSTAR":0.000025996595,"MEAN_MOTION_DOT":2.9e-7,"MEAN_MOTION_DDOT":0},{"OBJECT_NAME":"QIANFAN-104","OBJECT_ID":"2025-233P","EPOCH":"2026-07-20T01:41:37.584096","CLASSIFICATION_TYPE":"U","MEAN_MOTION":13.51022081,"ECCENTRICITY":0.00020867,"INCLINATION":88.9992,"RA_OF_ASC_NODE":39.7745,"ARG_OF_PERICENTER":87.1288,"MEAN_ANOMALY":273.0102,"EPHEMERIS_TYPE":0,"NORAD_CAT_ID":66046,"ELEMENT_SET_NO":999,"REV_AT_EPOCH":3767,"BSTAR":0.00001743186,"MEAN_MOTION_DOT":2.3e-7,"MEAN_MOTION_DDOT":0},{"OBJECT_NAME":"QIANFAN-105","OBJECT_ID":"2025-233Q","EPOCH":"2026-07-20T01:53:30.648480","CLASSIFICATION_TYPE":"U","MEAN_MOTION":13.51021253,"ECCENTRICITY":0.00021963,"INCLINATION":89.0005,"RA_OF_ASC_NODE":39.621,"ARG_OF_PERICENTER":92.4474,"MEAN_ANOMALY":267.6929,"EPHEMERIS_TYPE":0,"NORAD_CAT_ID":66047,"ELEMENT_SET_NO":999,"REV_AT_EPOCH":3778,"BSTAR":0.000009187803,"MEAN_MOTION_DOT":1.8e-7,"MEAN_MOTION_DDOT":0},{"OBJECT_NAME":"QIANFAN-106","OBJECT_ID":"2025-233R","EPOCH":"2026-07-20T19:33:56.132928","CLASSIFICATION_TYPE":"U","MEAN_MOTION":13.51015637,"ECCENTRICITY":0.00023226,"INCLINATION":88.9974,"RA_OF_ASC_NODE":39.749,"ARG_OF_PERICENTER":82.8156,"MEAN_ANOMALY":277.3259,"EPHEMERIS_TYPE":0,"NORAD_CAT_ID":66048,"ELEMENT_SET_NO":999,"REV_AT_EPOCH":3772,"BSTAR":0.00001169578,"MEAN_MOTION_DOT":2e-7,"MEAN_MOTION_DDOT":0},{"OBJECT_NAME":"QIANFAN-107","OBJECT_ID":"2025-233S","EPOCH":"2026-07-20T07:19:12.882144","CLASSIFICATION_TYPE":"U","MEAN_MOTION":13.51015078,"ECCENTRICITY":0.00020628,"INCLINATION":88.9989,"RA_OF_ASC_NODE":39.8385,"ARG_OF_PERICENTER":93.8149,"MEAN_ANOMALY":266.3238,"EPHEMERIS_TYPE":0,"NORAD_CAT_ID":66049,"ELEMENT_SET_NO":999,"REV_AT_EPOCH":3766,"BSTAR":-5.39184e-7,"MEAN_MOTION_DOT":1.2e-7,"MEAN_MOTION_DDOT":0},{"OBJECT_NAME":"QIANFAN-108","OBJECT_ID":"2025-233T","EPOCH":"2026-07-20T07:25:06.566592","CLASSIFICATION_TYPE":"U","MEAN_MOTION":13.51016298,"ECCENTRICITY":0.00022979,"INCLINATION":88.9982,"RA_OF_ASC_NODE":39.8234,"ARG_OF_PERICENTER":84.0703,"MEAN_ANOMALY":276.071,"EPHEMERIS_TYPE":0,"NORAD_CAT_ID":66050,"ELEMENT_SET_NO":999,"REV_AT_EPOCH":3766,"BSTAR":0.000004460812,"MEAN_MOTION_DOT":1.5e-7,"MEAN_MOTION_DDOT":0},{"OBJECT_NAME":"QIANFAN-109","OBJECT_ID":"2026-075A","EPOCH":"2026-07-20T21:58:37.598880","CLASSIFICATION_TYPE":"U","MEAN_MOTION":13.51025051,"ECCENTRICITY":0.00024287,"INCLINATION":88.9919,"RA_OF_ASC_NODE":317.569,"ARG_OF_PERICENTER":114.7151,"MEAN_ANOMALY":245.4254,"EPHEMERIS_TYPE":0,"NORAD_CAT_ID":68636,"ELEMENT_SET_NO":999,"REV_AT_EPOCH":1434,"BSTAR":0.00017129553,"MEAN_MOTION_DOT":0.00000123,"MEAN_MOTION_DDOT":0},{"OBJECT_NAME":"QIANFAN-110","OBJECT_ID":"2026-075B","EPOCH":"2026-07-20T20:23:50.090784","CLASSIFICATION_TYPE":"U","MEAN_MOTION":13.51016606,"ECCENTRICITY":0.00020598,"INCLINATION":88.9919,"RA_OF_ASC_NODE":317.5972,"ARG_OF_PERICENTER":104.7716,"MEAN_ANOMALY":255.3664,"EPHEMERIS_TYPE":0,"NORAD_CAT_ID":68637,"ELEMENT_SET_NO":999,"REV_AT_EPOCH":1433,"BSTAR":0.0001460211,"MEAN_MOTION_DOT":0.00000106,"MEAN_MOTION_DDOT":0},{"OBJECT_NAME":"QIANFAN-111","OBJECT_ID":"2026-075C","EPOCH":"2026-07-20T21:52:38.814240","CLASSIFICATION_TYPE":"U","MEAN_MOTION":13.51023544,"ECCENTRICITY":0.00020333,"INCLINATION":88.9918,"RA_OF_ASC_NODE":317.5504,"ARG_OF_PERICENTER":103.8126,"MEAN_ANOMALY":256.3252,"EPHEMERIS_TYPE":0,"NORAD_CAT_ID":68638,"ELEMENT_SET_NO":999,"REV_AT_EPOCH":1436,"BSTAR":0.00017385697,"MEAN_MOTION_DOT":0.00000124,"MEAN_MOTION_DDOT":0},{"OBJECT_NAME":"QIANFAN-112","OBJECT_ID":"2026-075D","EPOCH":"2026-07-20T20:59:10.989600","CLASSIFICATION_TYPE":"U","MEAN_MOTION":13.5101402,"ECCENTRICITY":0.00022322,"INCLINATION":88.9916,"RA_OF_ASC_NODE":317.5628,"ARG_OF_PERICENTER":117.8274,"MEAN_ANOMALY":242.3103,"EPHEMERIS_TYPE":0,"NORAD_CAT_ID":68639,"ELEMENT_SET_NO":999,"REV_AT_EPOCH":1435,"BSTAR":0.00017557652,"MEAN_MOTION_DOT":0.00000125,"MEAN_MOTION_DDOT":0}]}
