QIANFAN-97              
1 66039U 25233G   26201.92629806  .00000028  00000+0  25209-4 0  9993
2 66039  88.9986  39.7751 0002095  94.3920 265.7470 13.51015980 37744
QIANFAN-98              
1 66040U 25233H   26201.93450520  .00000016  00000+0  68527-5 0  9999
2 66040  88.9975  39.5015 0002377  81.2027 278.9393 13.51015671 37883
QIANFAN-99              
1 66041U 25233J   26201.93860627  .00000022  00000+0  14819-4 0  9994
2 66041  88.9987  39.7781 0002358  86.1030 274.0391 13.51015735 37747
QIANFAN-100             
1 66042U 25233K   26201.93032893  .00000017  00000+0  81761-5 0  9996
2 66042  88.9997  39.7096 0002070  94.4279 265.7109 13.51015813 37792
QIANFAN-101             
1 66043U 25233L   26201.25570213  .00000170  00000+0  63820-4 0  9990
2 66043  88.9984  36.7689 0016718  42.7466 317.5025 14.26824149 39341
QIANFAN-102             
1 66044U 25233M   26201.80285271  .00000029  00000+0  25804-4 0  9992
2 66044  88.9984  39.7006 0002161  89.4195 270.7204 13.51015639 37779
QIANFAN-103             
1 66045U 25233N   26201.28852086  .00000029  00000+0  25997-4 0  9992
2 66045  88.9987  39.8488 0002069  94.6098 265.5289 13.51016554 37654
QIANFAN-104             
1 66046U 25233P   26201.07057389  .00000023  00000+0  17432-4 0  9992
2 66046  88.9992  39.7745 0002086  87.1288 273.0102 13.51022081 37675
QIANFAN-105             
1 66047U 25233Q   26201.07882695  .00000018  00000+0  91878-5 0  9990
2 66047  89.0005  39.6210 0002196  92.4474 267.6929 13.51021253 37785
QIANFAN-106             
1 66048U 25233R   26201.81523302  .00000020  00000+0  11696-4 0  9992
2 66048  88.9974  39.7490 0002322  82.8156 277.3259 13.51015637 37728
QIANFAN-107             
1 66049U 25233S   26201.30501021  .00000012  00000+0 -53918-6 0  9998
2 66049  88.9989  39.8385 0002062  93.8149 266.3238 13.51015078 37661
QIANFAN-108             
1 66050U 25233T   26201.30910378  .00000015  00000+0  44608-5 0  9996
2 66050  88.9982  39.8234 0002297  84.0703 276.0710 13.51016298 37665
QIANFAN-109             
1 68636U 26075A   26201.91571295  .00000123  00000+0  17130-3 0  9999
2 68636  88.9919 317.5690 0002428 114.7151 245.4254 13.51025051 14343
QIANFAN-110             
1 68637U 26075B   26201.84988531  .00000106  00000+0  14602-3 0  9999
2 68637  88.9919 317.5972 0002059 104.7716 255.3664 13.51016606 14333
QIANFAN-111             
1 68638U 26075C   26201.91156035  .00000124  00000+0  17386-3 0  9996
2 68638  88.9918 317.5504 0002033 103.8126 256.3252 13.51023544 14367
QIANFAN-112             
1 68639U 26075D   26201.87443275  .00000125  00000+0  17558-3 0  9999
2 68639  88.9916 317.5628 0002232 117.8274 242.3103 13.51014020 14351
